#dP2020  7  7  0  0  0.00000000      96 __u+U ITR00 FIT  IAC
## 2113 172800.00000000   900.00000000 59037 0.0000000000000
+  113   C06C07C08C09C10C11C12C13C14C16C19C20C21C22C23C24C25
+        C26C27C28C29C30C32C33C34C35C36C37C40C43C44C45C46E01
+        E02E03E04E05E07E08E09E11E12E13E14E15E18E19E21E24E25
+        E26E27E30E31E33E36G01G02G03G04G05G06G07G08G09G10G11
+        G12G13G14G15G16G17G18G19G20G21G22G24G25G26G27G28G29
+        G30G31G32J01J02J03R01R02R03R04R05R07R08R09R11R12R13
+        R14R15R16R17R18R19R20R21R23R24R26  0  0  0  0  0  0
++        10  7  8  9  8  7  7  9  6 10  8  7  6  7  6  7  6
++         7  8  7  7  6  8  7  8  7  6  8  0  8 11  8 11  6
++         6  6  6  6  5  5  6  7  6  6  6  6  6  6  6  5  6
++         7  6  6  6  5  6  5  6  5  5  6  7  5  6  5  7  6
++         5  6  6  7  5  5  5  6  6  6  6  6  6  4  7  5  6
++         4  5  5  8  7  6  6  7  6  5  7  6  5  6  5  6  7
++         5  6  6  6  7  8  8  7  6  6  6  0  0  0  0  0  0
%c M  cc GPS ccc cccc cccc cccc cccc ccccc ccccc ccccc ccccc
%c cc cc ccc ccc cccc cccc cccc cccc ccccc ccccc ccccc ccccc
%f  0.0000000  0.000000000  0.00000000000  0.000000000000000
%f  0.0000000  0.000000000  0.00000000000  0.000000000000000
%i    0    0    0    0      0      0      0      0         0
%i    0    0    0    0      0      0      0      0         0
/* INFORMATION & ANALYSIS CENTER (IAC)      ULTRA-RAPID DATA
/* S/V CLOCKS ARE ALIGNED TO GNSS TIME                      
/* G:C1WC2W R:C1PC2P E:C1XC5X C:C2IC6I J:C1CC2S             
/* PCV:IGS14_2108 OL/AL:FES2004  NONE     YN ORB:CoN CLK:CoN
*  2020 07 07  7 15  0.00000000
PC06 -24542.847417  29718.348384 -17197.057176    773.824911
PC07 -10238.940137  36451.063300 -17822.692835    -14.182319
PC08  -9299.698899  19462.646075  36320.292024   -358.622616
PC09 -10525.417416  29208.376653 -28432.118927    659.738917
PC10    118.468351  41461.997701  -5966.495443   -243.138009
PC11  26969.743572  -6976.186346   2130.875077   -475.178448
PC12  20540.604889   5795.522129  18020.121613    423.830241
PC13   5974.636758  26341.069831  32536.347422    529.854089
PC14  16533.957206  -7961.218450 -21010.312388    633.385419
PC16 -21874.135530  30221.268511 -19752.968777   -603.746745
PC19 -14703.085564  17629.016772  15881.543629    467.297916
PC20 -15824.742091  -1979.783125  22918.798407   -842.035282
PC21   7513.531503  21148.952666 -16545.967607   -624.626290
PC22  -5044.640132  27420.688722   -590.110042   -775.131885
PC23  -1490.253709 -19980.389922  19437.927602   -845.788612
PC24  23362.604516  10070.435250  11487.452388   -771.748812
PC25  15059.527751  -7812.853000  22158.817060   -677.440269
PC26  18393.198984  20413.578311  -4960.952548    745.541609
PC27 -12181.897977 -12117.382582 -22012.748083    360.135847
PC28   8538.740399 -17306.641613 -20162.062720   -201.379230
PC29 -23666.768203  13263.145885   6528.143845    252.589072
PC30 -25544.603924    854.941773 -11232.545958    342.848314
PC32  -7705.606179 -21105.442488  16577.705774   -875.962105
PC33  14632.554200 -17695.103865 -15865.699519   -802.118112
PC34  25701.609349  -1125.277740  10775.883545   -880.334214
PC35  -8160.599947  17648.857832  20021.763589   -761.854840
PC36 -15400.922759   7237.763173 -22088.646713   -862.672686
PC37 -17457.852847 -21030.919197   5631.940547   -864.300675
PC40      0.000000      0.000000      0.000000 999999.999999
PC43  23875.752333 -13009.802409  -6241.351171   -271.276938
PC44  12377.082326  11935.000567  21964.690873   -310.870033
PC45   1642.629956  19896.123131 -19491.457182 999999.999999
PC46 -23292.069497  -9579.015392 -11978.223460 999999.999999
PE01  16688.880434  -2235.309644  24347.371619   -893.136714
PE02 -16650.700058   2342.995058 -24358.001494    145.583143
PE03 -22429.920219  12117.775739  15033.008374   -317.904418
PE04  16214.379791 -24635.453610   2562.231618   -560.820082
PE05 -15557.427687  -7644.884753  24001.344262   -365.352681
PE07   -344.232189  22779.392773 -18879.384439   -405.605881
PE08 -15939.432727  24777.320518  -2766.005915   6153.208786
PE09    203.070831 -22683.363642  19036.120246   6004.655870
PE11  -8844.995029 -16290.321312 -23092.893110   3940.378717
PE12  14112.544230 -13262.357667 -22384.785606   5718.635452
PE13   8630.480360  16200.293767  23218.732205    402.138692
PE14 -24279.212018  11735.205291  -5131.936348  -1075.556049
PE15 -13854.933765  13323.908333  22510.847701    860.887882
PE18  17936.216750 -22015.267817 -10093.249336  -1178.008690
PE19  22236.568121 -10259.457191 -16617.179303     21.544244
PE21  18390.987268  17817.102093  14844.994452   -608.714629
PE24  -9010.872639 -27931.422005   3784.332874   5363.867692
PE25 -18359.949272 -17950.021788 -14723.929774   -513.251963
PE26  26240.358763   9548.872932   9824.168434   2988.322846
PE27   9364.783540  27859.491442  -3501.104421    182.752044
PE30  -5573.392234  21177.803395 -19922.672295   3767.127905
PE31   5125.517229 -21490.023360  19712.898755   -473.134926
PE33  28205.433645  -2619.131160  -8579.659401   -465.221126
PE36 -26054.206247  -9567.235010 -10294.511962    537.344181
PG01 -20286.217592 -14907.089677  -9216.128589     22.413212
PG02    -38.752864  16036.969420  21820.568709   -483.509963
PG03 -12126.163932 -19556.582151  13289.588293   -232.124588
PG04 -14459.363084  -7579.724074  20968.645823   -111.694237
PG05   1295.255822  25983.175555   4658.711337    -16.141539
PG06 -13374.987462   9724.842716  20842.979626   -299.630989
PG07 -25280.477782  -4840.514746  -7197.754977   -321.559273
PG08  -3957.791155 -15502.877315 -21143.820032    -40.125326
PG09 -21469.741144   3591.744212  15181.356980   -249.353236
PG10  12428.059082 -11573.661463 -20270.029153   -392.614599
PG11 -12784.781741 -13720.341377 -19187.741834   -228.064695
PG12  10432.572964  20511.366885  13160.026256     96.906392
PG13  -5444.680850  18233.868096 -18605.107332     24.604839
PG14  17381.565457 -18401.182619   8074.600058     -0.485704
PG15   6777.516746  15276.365943 -20902.382314   -219.226264
PG16   -289.246440 -26241.119353   1766.902201   -179.620315
PG17 -21823.738915  15079.013493   -276.827359    292.153791
PG18  24944.086175   4660.155898  -7909.954722    239.971511
PG19 -19029.324181  17213.012004   6473.716515   -135.335403
PG20  16383.698566    891.808922 -20995.740753    527.355278
PG21  17565.881279  -7484.230855 -17611.134007     20.694769
PG22 -10382.502950 -23785.819706   6211.309142   -773.665612
PG24  19328.834263  14921.612156 -11086.262556    -15.315361
PG25  14898.329499  10669.205915  19083.528603     20.620774
PG26   6471.513245 -21375.947036  14168.263813    238.891269
PG27   7092.132988 -19663.238431 -16327.594394   -339.560577
PG28 -12289.698716  12854.044550 -19197.868523    701.912728
PG29  19300.380127   1390.172363  18161.265612   -144.692814
PG30 -20790.785840   3852.838693 -16154.223401   -256.980382
PG31  12417.212567 -10714.918070  20930.809596    -53.974390
PG32  20721.220897 -16483.455418   -165.204008    312.891861
PJ01 -30278.331602  26305.776418  17911.445598   -276.332926
PJ02 -20736.760375  20201.196322 -26175.275660     -1.058397
PJ03 -28804.317586  29679.795682  13831.124721     -4.987832
PR01  11736.362968 -21675.579379  -6593.618915     64.182017
PR02   1433.627562 -21136.882277  14209.608118    435.112107
PR03  -8839.634611  -7179.687272  22866.112865     18.089316
PR04 -13789.057590  10755.409467  18600.694671     55.400492
PR05 -11175.367572  22624.111290   3817.436971     53.647254
PR07   9041.281060   6663.731925 -22865.062107    -38.238122
PR08  13860.713485 -10749.423911 -18457.305518    -53.303030
PR09  13500.665158  21019.195910  -4950.163011    142.071961
PR11  13784.147772    680.385625  21457.834804    -29.669391
PR12   2166.471053 -13706.203527  21429.580792    145.108777
PR13 -11301.372258 -21006.426474   9036.199160    -40.896877
PR14 -17844.729024 -15988.282815  -8766.576594     53.077283
PR15 -14105.581392  -1739.501192 -21159.504379    106.930635
PR16  -1422.960596  14379.379761 -21069.713386     -4.537230
PR17 -20208.743899  -4165.595631 -14968.629485    339.181756
PR18 -25221.234327   3827.387789   1161.084708     41.405022
PR19 -17321.069083   9176.142020  16312.940351   -101.250897
PR20   2951.588653  10099.739239  23234.653547   -416.113700
PR21  20879.311344   3705.312204  14191.587146   -136.415764
PR23  10695.894983 -10655.634031 -20574.677298    317.031876
PR24  -3913.061702 -10415.225195 -22942.868825      5.368205
PR26  -2266.865071  10706.745816  23043.676763   -365.146371
EOF
